{
    "links": {
        "self": "http://www.neowsapp.com/rest/v1/neo/3789117?api_key=iIulBulltgU6a56xZRHN4H3l9WmuAYTsLGpBGhQ2"
    },
    "id": "3789117",
    "neo_reference_id": "3789117",
    "name": "(2017 UY51)",
    "designation": "2017 UY51",
    "nasa_jpl_url": "http://ssd.jpl.nasa.gov/sbdb.cgi?sstr=3789117",
    "absolute_magnitude_h": 22.6,
    "estimated_diameter": {
        "kilometers": {
            "estimated_diameter_min": 0.0802703167,
            "estimated_diameter_max": 0.1794898848
        },
        "meters": {
            "estimated_diameter_min": 80.2703167283,
            "estimated_diameter_max": 179.4898847799
        },
        "miles": {
            "estimated_diameter_min": 0.049877647,
            "estimated_diameter_max": 0.1115298092
        },
        "feet": {
            "estimated_diameter_min": 263.3540659348,
            "estimated_diameter_max": 588.8775935812
        }
    },
    "is_potentially_hazardous_asteroid": false,
    "close_approach_data": [
        {
            "close_approach_date": "2017-11-16",
            "close_approach_date_full": "2017-Nov-16 00:06",
            "epoch_date_close_approach": 1510790760000,
            "relative_velocity": {
                "kilometers_per_second": "18.6712219567",
                "kilometers_per_hour": "67216.3990441132",
                "miles_per_hour": "41765.656394938"
            },
            "miss_distance": {
                "astronomical": "0.2506133773",
                "lunar": "97.4886037697",
                "kilometers": "37491227.437586351",
                "miles": "23295968.4813036038"
            },
            "orbiting_body": "Earth"
        }
    ],
    "orbital_data": {
        "orbit_id": "3",
        "orbit_determination_date": "2017-11-19 06:20:41",
        "first_observation_date": "2017-10-30",
        "last_observation_date": "2017-11-19",
        "data_arc_in_days": 20,
        "observations_used": 23,
        "orbit_uncertainty": "7",
        "minimum_orbit_intersection": ".2518",
        "jupiter_tisserand_invariant": "3.495",
        "epoch_osculation": "2459000.5",
        "eccentricity": ".4013571174348183",
        "semi_major_axis": "2.037095542530087",
        "inclination": "34.82251356205596",
        "ascending_node_longitude": "50.8400112630379",
        "orbital_period": "1061.978011283906",
        "perihelion_distance": "1.219492747640894",
        "perihelion_argument": "21.72420792739177",
        "aphelion_distance": "2.85469833741928",
        "perihelion_time": "2459156.838529693314",
        "mean_anomaly": "307.0027909320368",
        "mean_motion": ".3389900696387947",
        "equinox": "J2000",
        "orbit_class": {
            "orbit_class_type": "AMO",
            "orbit_class_description": "Near-Earth asteroid orbits similar to that of 1221 Amor",
            "orbit_class_range": "1.017 AU < q (perihelion) < 1.3 AU"
        }
    },
    "is_sentry_object": false
}